53495,STARLINK-4429,2025-12-13T21:35:40.980768,2025-12-14T13:04:14.456627,97.6033,106.2145,0.0001842,216.4032,143.7067,15.01257199,17811-3,18311,1 53495U 22099AG  25347.89977987  .00002230  00000+0  17811-3 0  9990,2 53495  97.6033 106.2145 0001842 216.4032 143.7067 15.01257199183110
53496,STARLINK-4465,2025-12-13T22:26:58.010496,2025-12-14T13:04:14.456627,97.6471,120.4162,0.000212,312.2266,47.882,15.79061612,14759-4,18397,1 53496U 22099AH  25347.93539364  .00002461  00000+0  14759-4 0  9994,2 53496  97.6471 120.4162 0002120 312.2266  47.8820 15.79061612183971
53497,STARLINK-4453,2025-12-13T21:30:21.043296,2025-12-14T13:04:14.456627,97.604,106.2132,0.0001634,196.8867,163.2303,15.01274199,-92840-4,18311,1 53497U 22099AJ  25347.89607689 -.00001251  00000+0 -92840-4 0  9991,2 53497  97.6040 106.2132 0001634 196.8867 163.2303 15.01274199183111
53498,STARLINK-4439,2025-12-13T20:51:17.971200,2025-12-14T13:04:14.456627,97.6026,106.5716,0.0001693,102.6571,257.4846,15.05636597,32330-4,18313,1 53498U 22099AK  25347.86895800  .00000406  00000+0  32330-4 0  9990,2 53498  97.6026 106.5716 0001693 102.6571 257.4846 15.05636597183137
53499,STARLINK-4454,2025-12-13T21:11:14.411616,2025-12-14T13:04:14.456627,97.6021,106.6914,7.58e-05,77.187,282.9442,15.05630863,-79341-4,18314,1 53499U 22099AL  25347.88280569 -.00001205  00000+0 -79341-4 0  9996,2 53499  97.6021 106.6914 0000758  77.1870 282.9442 15.05630863183149
53500,STARLINK-4455,2025-12-13T20:55:18.411168,2025-12-14T13:04:14.456627,97.6023,106.7141,0.000181,94.7589,265.3845,15.05635632,-53137-4,18314,1 53500U 22099AM  25347.87174087 -.00000827  00000+0 -53137-4 0  9999,2 53500  97.6023 106.7141 0001810  94.7589 265.3845 15.05635632183140
53501,STARLINK-4434,2025-12-13T21:19:41.568384,2025-12-14T13:04:14.456627,97.605,106.2202,0.0001621,206.015,154.0994,15.01257735,32872-4,18311,1 53501U 22099AN  25347.88867556  .00000364  00000+0  32872-4 0  9998,2 53501  97.6050 106.2202 0001621 206.0150 154.0994 15.01257735183112
53502,STARLINK-4435,2025-12-13T21:51:06.143328,2025-12-14T13:04:14.456627,97.602,106.655,0.0001452,89.112,271.0273,15.05647931,29774-3,18314,1 53502U 22099AP  25347.91048777  .00004238  00000+0  29774-3 0  9999,2 53502  97.6020 106.6550 0001452  89.1120 271.0273 15.05647931183147
53503,STARLINK-4461,2025-12-13T23:00:05.066208,2025-12-14T13:04:14.456627,97.6432,121.1261,0.0004621,287.1064,72.9696,15.79049606,12937-4,18402,1 53503U 22099AQ  25347.95839197  .00002138  00000+0  12937-4 0  9999,2 53503  97.6432 121.1261 0004621 287.1064  72.9696 15.79049606184025
53504,STARLINK-4448,2025-12-13T21:25:00.856128,2025-12-14T13:04:14.456627,97.6059,106.2151,0.000274,248.6825,111.4107,15.01252652,27253-3,18311,1 53504U 22099AR  25347.89237102  .00003443  00000+0  27253-3 0  9997,2 53504  97.6059 106.2151 0002740 248.6825 111.4107 15.01252652183117
53505,STARLINK-4446,2025-12-13T21:14:21.933312,2025-12-14T13:04:14.456627,97.6037,106.214,0.0001425,119.4059,240.7308,15.0127173,-22684-3,18311,1 53505U 22099AS  25347.88497608 -.00002971  00000+0 -22684-3 0  9996,2 53505  97.6037 106.2140 0001425 119.4059 240.7308 15.01271730183112
53506,STARLINK-4437,2025-12-13T21:59:03.517152,2025-12-14T13:04:14.456627,97.6019,106.6312,0.0001403,91.2817,268.857,15.05667535,-11591-3,18314,1 53506U 22099AT  25347.91601293 -.00001734  00000+0 -11591-3 0  9999,2 53506  97.6019 106.6312 0001403  91.2817 268.8570 15.05667535183144
53508,STARLINK-4443,2025-12-13T21:19:12.922464,2025-12-14T13:04:14.456627,97.6028,106.6662,0.0001271,92.0299,268.1073,15.05649097,40198-3,18314,1 53508U 22099AV  25347.88834401  .00005744  00000+0  40198-3 0  9994,2 53508  97.6028 106.6662 0001271  92.0299 268.1073 15.05649097183144
53509,STARLINK-4402,2025-12-13T21:09:02.150496,2025-12-14T13:04:14.456627,97.6033,106.2089,0.0002001,87.4078,272.7375,15.01249346,24157-4,18311,1 53509U 22099AW  25347.88127489  .00000252  00000+0  24157-4 0  9993,2 53509  97.6033 106.2089 0002001  87.4078 272.7375 15.01249346183117
53528,STARLINK-4503,2025-12-13T16:01:05.780064,2025-12-14T13:04:14.456627,53.2168,100.2884,0.0001078,104.1826,255.9286,15.08857163,-84822-3,18317,1 53528U 22101B   25347.66742801 -.00013768  00000+0 -84822-3 0  9997,2 53528  53.2168 100.2884 0001078 104.1826 255.9286 15.08857163183172
53529,STARLINK-4478,2025-12-13T17:25:55.117632,2025-12-14T13:04:14.456627,53.2184,100.034,0.0001386,90.0139,270.1012,15.08837905,22754-3,18318,1 53529U 22101C   25347.72633238  .00003335  00000+0  22754-3 0  9991,2 53529  53.2184 100.0340 0001386  90.0139 270.1012 15.08837905183187
53530,STARLINK-4482,2025-12-13T17:47:09.435552,2025-12-14T13:04:14.456627,53.2179,100.1809,0.0001231,99.281,260.8322,15.0884373,22551-4,18318,1 53530U 22101D   25347.74108143  .00000071  00000+0  22551-4 0  9997,2 53530  53.2179 100.1809 0001231  99.2810 260.8322 15.08843730183183
53531,STARLINK-4487,2025-12-13T17:20:36.731040,2025-12-14T13:04:14.456627,53.218,100.039,0.0001141,72.5857,287.526,15.08848153,10691-3,18318,1 53531U 22101E   25347.72264735  .00001414  00000+0  10691-3 0  9999,2 53531  53.2180 100.0390 0001141  72.5857 287.5260 15.08848153183186
53532,STARLINK-4483,2025-12-13T18:08:19.161312,2025-12-14T13:04:14.456627,53.2157,99.8928,0.0001121,82.1017,278.0102,15.08840586,21682-3,18319,1 53532U 22101F   25347.75577733  .00003165  00000+0  21682-3 0  9995,2 53532  53.2157  99.8928 0001121  82.1017 278.0102 15.08840586183199
53533,STARLINK-4493,2025-12-13T16:27:35.170272,2025-12-14T13:04:14.456627,53.2155,100.1967,0.0001412,93.7994,266.316,15.08862013,26958-3,18318,1 53533U 22101G   25347.68582373  .00004008  00000+0  26958-3 0  9992,2 53533  53.2155 100.1967 0001412  93.7994 266.3160 15.08862013183184
53535,STARLINK-4138,2025-12-13T16:22:19.224480,2025-12-14T13:04:14.456627,53.2172,100.2234,0.0001172,86.3902,273.7224,15.08844707,14655-3,18318,1 53535U 22101J   25347.68216695  .00002046  00000+0  14655-3 0  9996,2 53535  53.2172 100.2234 0001172  86.3902 273.7224 15.08844707183186
53536,STARLINK-4053,2025-12-13T14:11:09.574656,2025-12-14T13:04:14.456627,53.2176,90.5553,0.000156,88.2487,271.8684,15.08843693,29938-3,18330,1 53536U 22101K   25347.59108304  .00004480  00000+0  29938-3 0  9998,2 53536  53.2176  90.5553 0001560  88.2487 271.8684 15.08843693183302
53537,STARLINK-4120,2025-12-13T16:23:42.190944,2025-12-14T13:04:14.456627,53.2176,100.1901,8.93e-05,65.6513,294.4573,15.08840662,93698-4,18318,1 53537U 22101L   25347.68312721  .00001204  00000+0  93698-4 0  9995,2 53537  53.2176 100.1901 0000893  65.6513 294.4573 15.08840662183182
53538,STARLINK-4118,2025-12-14T00:00:04.000320,2025-12-14T13:04:14.456627,53.2181,88.3905,0.0001103,73.0512,180.7989,15.20513784,80759-1,576,1 53538U 22101M   25348.00004630  .01982571  00000+0  80759-1 0  9997,2 53538  53.2181  88.3905 0001103  73.0512 180.7989 15.20513784  5768
53539,STARLINK-4123,2025-12-13T16:17:01.663872,2025-12-14T13:04:14.456627,53.2176,100.2392,3e-05,32.299,327.802,15.08841011,82541-4,18318,1 53539U 22101N   25347.67849148  .00001026  00000+0  82541-4 0  9991,2 53539  53.2176 100.2392 0000300  32.2990 327.8020 15.08841011183188
53540,STARLINK-4486,2025-12-13T16:35:41.320608,2025-12-14T13:04:14.456627,53.2162,90.5391,0.0001475,76.9669,283.1488,15.08856444,11028-3,18400,1 53540U 22101P   25347.69145047  .00001468  00000+0  11028-3 0  9993,2 53540  53.2162  90.5391 0001475  76.9669 283.1488 15.08856444184007
53541,STARLINK-4485,2025-12-13T17:41:48.069888,2025-12-14T13:04:14.456627,53.2178,99.9749,0.0001371,86.33,273.7849,15.08858154,-44734-5,18388,1 53541U 22101Q   25347.73736192 -.00000359  00000+0 -44734-5 0  9998,2 53541  53.2178  99.9749 0001371  86.3300 273.7849 15.08858154183888
53542,STARLINK-4489,2025-12-13T15:35:57.910848,2025-12-14T13:04:14.456627,53.2168,90.3693,0.0001409,88.7959,271.3195,15.08837635,64719-3,18400,1 53542U 22101R   25347.64997582  .00010026  00000+0  64719-3 0  9994,2 53542  53.2168  90.3693 0001409  88.7959 271.3195 15.08837635184003
53543,STARLINK-4297,2025-12-13T14:21:46.811808,2025-12-14T13:04:14.456627,53.2169,90.6655,0.0001182,89.1605,270.9523,15.08841805,12776-3,18399,1 53543U 22101S   25347.59845847  .00001746  00000+0  12776-3 0  9990,2 53543  53.2169  90.6655 0001182  89.1605 270.9523 15.08841805183998
53544,STARLINK-4303,2025-12-13T18:36:07.375968,2025-12-14T13:04:14.456627,53.2169,89.8065,0.0001183,93.1125,267.0003,15.08846122,12538-3,18400,1 53544U 22101T   25347.77508537  .00001708  00000+0  12538-3 0  9997,2 53544  53.2169  89.8065 0001183  93.1125 267.0003 15.08846122184007
53545,STARLINK-4475,2025-12-13T17:16:39.339264,2025-12-14T13:04:14.456627,53.2165,90.0551,0.0001092,81.3002,278.8113,15.08862384,72187-3,18401,1 53545U 22101U   25347.71989976  .00011226  00000+0  72187-3 0  9994,2 53545  53.2165  90.0551 0001092  81.3002 278.8113 15.08862384184011
53546,STARLINK-4477,2025-12-13T15:47:48.909408,2025-12-14T13:04:14.456627,53.218,79.8617,9.35e-05,96.2356,263.8742,15.08819999,48716-3,18346,1 53546U 22101V   25347.65820497  .00007470  00000+0  48716-3 0  9997,2 53546  53.2180  79.8617 0000935  96.2356 263.8742 15.08819999183463
53547,STARLINK-4474,2025-12-13T17:06:02.664576,2025-12-14T13:04:14.456627,53.2184,90.0878,0.0001338,94.0716,266.0429,15.08844458,71206-4,18399,1 53547U 22101W   25347.71253084  .00000846  00000+0  71206-4 0  9998,2 53547  53.2184  90.0878 0001338  94.0716 266.0429 15.08844458183999
53548,STARLINK-4513,2025-12-13T16:44:51.242784,2025-12-14T13:04:14.456627,53.2184,90.1503,0.0001646,101.579,258.5387,15.08838682,60375-4,18332,1 53548U 22101X   25347.69781531  .00000673  00000+0  60375-4 0  9992,2 53548  53.2184  90.1503 0001646 101.5790 258.5387 15.08838682183322
53550,STARLINK-4518,2025-12-14T00:00:04.000320,2025-12-14T13:04:14.456627,53.2173,88.7038,0.0001811,102.6901,167.2412,15.14510045,13947-2,580,1 53550U 22101Z   25348.00004630  .00025775  00000+0  13947-2 0  9990,2 53550  53.2173  88.7038 0001811 102.6901 167.2412 15.14510045  5807
